{"fetchedAt":"2026-06-29T18:07:57.466Z","satellites":[{"id":"47276","name":"ONEWEB-0130","constellationId":"oneweb","omm":{"OBJECT_NAME":"ONEWEB-0130","OBJECT_ID":"2020-100U","EPOCH":"2026-06-29T12:58:01.449120","MEAN_MOTION":13.12441739,"ECCENTRICITY":0.0001838,"INCLINATION":87.8954,"RA_OF_ASC_NODE":348.1955,"ARG_OF_PERICENTER":96.5284,"MEAN_ANOMALY":263.6054,"EPHEMERIS_TYPE":0,"CLASSIFICATION_TYPE":"U","NORAD_CAT_ID":47276,"ELEMENT_SET_NO":999,"REV_AT_EPOCH":26626,"BSTAR":0.0011223,"MEAN_MOTION_DOT":0.00000416,"MEAN_MOTION_DDOT":0}},{"id":"47277","name":"ONEWEB-0131","constellationId":"oneweb","omm":{"OBJECT_NAME":"ONEWEB-0131","OBJECT_ID":"2020-100V","EPOCH":"2026-06-29T11:03:21.845664","MEAN_MOTION":13.12443993,"ECCENTRICITY":0.0001672,"INCLINATION":87.8944,"RA_OF_ASC_NODE":348.2281,"ARG_OF_PERICENTER":97.2227,"MEAN_ANOMALY":262.9092,"EPHEMERIS_TYPE":0,"CLASSIFICATION_TYPE":"U","NORAD_CAT_ID":47277,"ELEMENT_SET_NO":999,"REV_AT_EPOCH":26629,"BSTAR":0.0012566,"MEAN_MOTION_DOT":0.00000465,"MEAN_MOTION_DDOT":0}},{"id":"47278","name":"ONEWEB-0132","constellationId":"oneweb","omm":{"OBJECT_NAME":"ONEWEB-0132","OBJECT_ID":"2020-100W","EPOCH":"2026-06-29T11:44:48.833376","MEAN_MOTION":13.12441844,"ECCENTRICITY":0.0001779,"INCLINATION":87.8946,"RA_OF_ASC_NODE":348.2246,"ARG_OF_PERICENTER":94.1576,"MEAN_ANOMALY":265.9755,"EPHEMERIS_TYPE":0,"CLASSIFICATION_TYPE":"U","NORAD_CAT_ID":47278,"ELEMENT_SET_NO":999,"REV_AT_EPOCH":26619,"BSTAR":-0.0011806,"MEAN_MOTION_DOT":-0.00000412,"MEAN_MOTION_DDOT":0}},{"id":"47279","name":"ONEWEB-0133","constellationId":"oneweb","omm":{"OBJECT_NAME":"ONEWEB-0133","OBJECT_ID":"2020-100X","EPOCH":"2026-06-29T12:09:01.278720","MEAN_MOTION":13.12443914,"ECCENTRICITY":0.000169,"INCLINATION":87.8959,"RA_OF_ASC_NODE":348.1989,"ARG_OF_PERICENTER":95.3859,"MEAN_ANOMALY":264.7462,"EPHEMERIS_TYPE":0,"CLASSIFICATION_TYPE":"U","NORAD_CAT_ID":47279,"ELEMENT_SET_NO":999,"REV_AT_EPOCH":26635,"BSTAR":-0.00043834,"MEAN_MOTION_DOT":-0.00000145,"MEAN_MOTION_DDOT":0}},{"id":"47280","name":"ONEWEB-0134","constellationId":"oneweb","omm":{"OBJECT_NAME":"ONEWEB-0134","OBJECT_ID":"2020-100Y","EPOCH":"2026-06-29T11:25:18.091776","MEAN_MOTION":13.12440425,"ECCENTRICITY":0.0001827,"INCLINATION":87.8958,"RA_OF_ASC_NODE":348.2018,"ARG_OF_PERICENTER":101.8687,"MEAN_ANOMALY":258.2646,"EPHEMERIS_TYPE":0,"CLASSIFICATION_TYPE":"U","NORAD_CAT_ID":47280,"ELEMENT_SET_NO":999,"REV_AT_EPOCH":26632,"BSTAR":-0.000015603,"MEAN_MOTION_DOT":7e-8,"MEAN_MOTION_DDOT":0}},{"id":"47281","name":"ONEWEB-0135","constellationId":"oneweb","omm":{"OBJECT_NAME":"ONEWEB-0135","OBJECT_ID":"2020-100Z","EPOCH":"2026-06-29T10:43:50.568384","MEAN_MOTION":13.12442669,"ECCENTRICITY":0.0001715,"INCLINATION":87.8944,"RA_OF_ASC_NODE":348.229,"ARG_OF_PERICENTER":102.3638,"MEAN_ANOMALY":257.7682,"EPHEMERIS_TYPE":0,"CLASSIFICATION_TYPE":"U","NORAD_CAT_ID":47281,"ELEMENT_SET_NO":999,"REV_AT_EPOCH":26634,"BSTAR":0.0010422,"MEAN_MOTION_DOT":0.00000388,"MEAN_MOTION_DDOT":0}},{"id":"47282","name":"ONEWEB-0136","constellationId":"oneweb","omm":{"OBJECT_NAME":"ONEWEB-0136","OBJECT_ID":"2020-100AA","EPOCH":"2026-06-29T11:10:40.507968","MEAN_MOTION":13.1244085,"ECCENTRICITY":0.0001838,"INCLINATION":87.8953,"RA_OF_ASC_NODE":348.2074,"ARG_OF_PERICENTER":103.5041,"MEAN_ANOMALY":256.6293,"EPHEMERIS_TYPE":0,"CLASSIFICATION_TYPE":"U","NORAD_CAT_ID":47282,"ELEMENT_SET_NO":999,"REV_AT_EPOCH":26627,"BSTAR":0.0007878,"MEAN_MOTION_DOT":0.00000296,"MEAN_MOTION_DDOT":0}},{"id":"47283","name":"ONEWEB-0137","constellationId":"oneweb","omm":{"OBJECT_NAME":"ONEWEB-0137","OBJECT_ID":"2020-100AB","EPOCH":"2026-06-29T11:59:27.713184","MEAN_MOTION":13.12443418,"ECCENTRICITY":0.0001931,"INCLINATION":87.8959,"RA_OF_ASC_NODE":348.2116,"ARG_OF_PERICENTER":89.5827,"MEAN_ANOMALY":270.5522,"EPHEMERIS_TYPE":0,"CLASSIFICATION_TYPE":"U","NORAD_CAT_ID":47283,"ELEMENT_SET_NO":999,"REV_AT_EPOCH":26618,"BSTAR":-0.000826,"MEAN_MOTION_DOT":-0.00000284,"MEAN_MOTION_DDOT":0}},{"id":"47284","name":"ONEWEB-0138","constellationId":"oneweb","omm":{"OBJECT_NAME":"ONEWEB-0138","OBJECT_ID":"2020-100AC","EPOCH":"2026-06-29T11:27:44.868096","MEAN_MOTION":13.12441014,"ECCENTRICITY":0.0001893,"INCLINATION":87.8954,"RA_OF_ASC_NODE":348.2208,"ARG_OF_PERICENTER":100.0503,"MEAN_ANOMALY":260.0839,"EPHEMERIS_TYPE":0,"CLASSIFICATION_TYPE":"U","NORAD_CAT_ID":47284,"ELEMENT_SET_NO":999,"REV_AT_EPOCH":26626,"BSTAR":-0.00028396,"MEAN_MOTION_DOT":-8.9e-7,"MEAN_MOTION_DDOT":0}},{"id":"47285","name":"ONEWEB-0139","constellationId":"oneweb","omm":{"OBJECT_NAME":"ONEWEB-0139","OBJECT_ID":"2020-100AD","EPOCH":"2026-06-29T12:26:30.655104","MEAN_MOTION":13.12442732,"ECCENTRICITY":0.0001865,"INCLINATION":87.8953,"RA_OF_ASC_NODE":348.1991,"ARG_OF_PERICENTER":94.105,"MEAN_ANOMALY":266.0292,"EPHEMERIS_TYPE":0,"CLASSIFICATION_TYPE":"U","NORAD_CAT_ID":47285,"ELEMENT_SET_NO":999,"REV_AT_EPOCH":26634,"BSTAR":0.00067248,"MEAN_MOTION_DOT":0.00000255,"MEAN_MOTION_DDOT":0}},{"id":"47286","name":"ONEWEB-0140","constellationId":"oneweb","omm":{"OBJECT_NAME":"ONEWEB-0140","OBJECT_ID":"2020-100AE","EPOCH":"2026-06-29T11:20:25.816128","MEAN_MOTION":13.12440777,"ECCENTRICITY":0.0001646,"INCLINATION":87.8954,"RA_OF_ASC_NODE":348.199,"ARG_OF_PERICENTER":94.0391,"MEAN_ANOMALY":266.0925,"EPHEMERIS_TYPE":0,"CLASSIFICATION_TYPE":"U","NORAD_CAT_ID":47286,"ELEMENT_SET_NO":999,"REV_AT_EPOCH":26630,"BSTAR":0.00031181,"MEAN_MOTION_DOT":0.00000125,"MEAN_MOTION_DDOT":0}},{"id":"47287","name":"ONEWEB-0141","constellationId":"oneweb","omm":{"OBJECT_NAME":"ONEWEB-0141","OBJECT_ID":"2020-100AF","EPOCH":"2026-06-29T12:26:06.348192","MEAN_MOTION":13.12443793,"ECCENTRICITY":0.0002048,"INCLINATION":87.8952,"RA_OF_ASC_NODE":348.195,"ARG_OF_PERICENTER":87.142,"MEAN_ANOMALY":272.9942,"EPHEMERIS_TYPE":0,"CLASSIFICATION_TYPE":"U","NORAD_CAT_ID":47287,"ELEMENT_SET_NO":999,"REV_AT_EPOCH":26629,"BSTAR":0.00050391,"MEAN_MOTION_DOT":0.00000194,"MEAN_MOTION_DDOT":0}},{"id":"47288","name":"ONEWEB-0142","constellationId":"oneweb","omm":{"OBJECT_NAME":"ONEWEB-0142","OBJECT_ID":"2020-100AG","EPOCH":"2026-06-29T12:09:26.347680","MEAN_MOTION":13.12444912,"ECCENTRICITY":0.0002268,"INCLINATION":87.8948,"RA_OF_ASC_NODE":348.2182,"ARG_OF_PERICENTER":93.9054,"MEAN_ANOMALY":266.2333,"EPHEMERIS_TYPE":0,"CLASSIFICATION_TYPE":"U","NORAD_CAT_ID":47288,"ELEMENT_SET_NO":999,"REV_AT_EPOCH":26628,"BSTAR":-0.00032469,"MEAN_MOTION_DOT":-0.00000104,"MEAN_MOTION_DDOT":0}},{"id":"47289","name":"ONEWEB-0143","constellationId":"oneweb","omm":{"OBJECT_NAME":"ONEWEB-0143","OBJECT_ID":"2020-100AH","EPOCH":"2026-06-29T12:23:51.965952","MEAN_MOTION":13.1244377,"ECCENTRICITY":0.0001856,"INCLINATION":87.895,"RA_OF_ASC_NODE":348.2156,"ARG_OF_PERICENTER":92.3507,"MEAN_ANOMALY":267.7834,"EPHEMERIS_TYPE":0,"CLASSIFICATION_TYPE":"U","NORAD_CAT_ID":47289,"ELEMENT_SET_NO":999,"REV_AT_EPOCH":26626,"BSTAR":0.00023091,"MEAN_MOTION_DOT":9.6e-7,"MEAN_MOTION_DDOT":0}},{"id":"47290","name":"ONEWEB-0144","constellationId":"oneweb","omm":{"OBJECT_NAME":"ONEWEB-0144","OBJECT_ID":"2020-100AJ","EPOCH":"2026-06-29T11:42:22.785408","MEAN_MOTION":13.12441549,"ECCENTRICITY":0.0002074,"INCLINATION":87.8958,"RA_OF_ASC_NODE":348.1956,"ARG_OF_PERICENTER":101.3299,"MEAN_ANOMALY":258.8063,"EPHEMERIS_TYPE":0,"CLASSIFICATION_TYPE":"U","NORAD_CAT_ID":47290,"ELEMENT_SET_NO":999,"REV_AT_EPOCH":26618,"BSTAR":-0.0010962,"MEAN_MOTION_DOT":-0.00000382,"MEAN_MOTION_DDOT":0}}]}